CCSDS_OMM_VERS = 2.0
CREATION_DATE  = 
ORIGINATOR     = 

OBJECT_NAME    = UNKNOWN
OBJECT_ID      = 
CENTER_NAME    = EARTH
REF_FRAME      = TEME
TIME_SYSTEM    = UTC
MEAN_ELEMENT_THEORY = SGP/SGP4

EPOCH          = 2026-01-08T16:20:04.886304
MEAN_MOTION    = 13.00418883
ECCENTRICITY   = .0028007
INCLINATION    = 90.2505
RA_OF_ASC_NODE = 1.8451
ARG_OF_PERICENTER = 78.1458
MEAN_ANOMALY   = 282.2803

EPHEMERIS_TYPE = 0
CLASSIFICATION_TYPE = U
NORAD_CAT_ID   = 270223
ELEMENT_SET_NO = 999
REV_AT_EPOCH   = 28612
BSTAR          = -.39059145E-3
MEAN_MOTION_DOT = -.111E-5
MEAN_MOTION_DDOT = 0

CCSDS_OMM_VERS = 2.0
CREATION_DATE  = 
ORIGINATOR     = 

OBJECT_NAME    = UNKNOWN
OBJECT_ID      = 
CENTER_NAME    = EARTH
REF_FRAME      = TEME
TIME_SYSTEM    = UTC
MEAN_ELEMENT_THEORY = SGP/SGP4

EPOCH          = 2026-01-18T15:15:46.010880
MEAN_MOTION    = 13.39759349
ECCENTRICITY   = .05254767
INCLINATION    = 73.1466
RA_OF_ASC_NODE = 352.6355
ARG_OF_PERICENTER = 159.5540
MEAN_ANOMALY   = 202.7484

EPHEMERIS_TYPE = 0
CLASSIFICATION_TYPE = U
NORAD_CAT_ID   = 270224
ELEMENT_SET_NO = 999
REV_AT_EPOCH   = 29299
BSTAR          = .1643787E-2
MEAN_MOTION_DOT = .1983E-4
MEAN_MOTION_DDOT = 0

CCSDS_OMM_VERS = 2.0
CREATION_DATE  = 
ORIGINATOR     = 

OBJECT_NAME    = UNKNOWN
OBJECT_ID      = 
CENTER_NAME    = EARTH
REF_FRAME      = TEME
TIME_SYSTEM    = UTC
MEAN_ELEMENT_THEORY = SGP/SGP4

EPOCH          = 2026-01-14T01:59:26.635488
MEAN_MOTION    = 11.67018884
ECCENTRICITY   = .03986659
INCLINATION    = 101.2657
RA_OF_ASC_NODE = 116.3379
ARG_OF_PERICENTER = 138.4013
MEAN_ANOMALY   = 224.8073

EPHEMERIS_TYPE = 0
CLASSIFICATION_TYPE = U
NORAD_CAT_ID   = 270226
ELEMENT_SET_NO = 999
REV_AT_EPOCH   = 25884
BSTAR          = -.32245744E-3
MEAN_MOTION_DOT = -.52E-6
MEAN_MOTION_DDOT = 0

CCSDS_OMM_VERS = 2.0
CREATION_DATE  = 
ORIGINATOR     = 

OBJECT_NAME    = UNKNOWN
OBJECT_ID      = 
CENTER_NAME    = EARTH
REF_FRAME      = TEME
TIME_SYSTEM    = UTC
MEAN_ELEMENT_THEORY = SGP/SGP4

EPOCH          = 2026-01-11T12:29:38.466240
MEAN_MOTION    = 12.24560369
ECCENTRICITY   = .01405321
INCLINATION    = 74.0114
RA_OF_ASC_NODE = 301.4438
ARG_OF_PERICENTER = 311.8915
MEAN_ANOMALY   = 47.0202

EPHEMERIS_TYPE = 0
CLASSIFICATION_TYPE = U
NORAD_CAT_ID   = 270228
ELEMENT_SET_NO = 999
REV_AT_EPOCH   = 26943
BSTAR          = .17081306E-3
MEAN_MOTION_DOT = .4E-7
MEAN_MOTION_DDOT = 0

CCSDS_OMM_VERS = 2.0
CREATION_DATE  = 
ORIGINATOR     = 

OBJECT_NAME    = UNKNOWN
OBJECT_ID      = 
CENTER_NAME    = EARTH
REF_FRAME      = TEME
TIME_SYSTEM    = UTC
MEAN_ELEMENT_THEORY = SGP/SGP4

EPOCH          = 2026-01-19T12:42:29.276928
MEAN_MOTION    = 13.91141906
ECCENTRICITY   = .01428946
INCLINATION    = 98.9384
RA_OF_ASC_NODE = 305.3516
ARG_OF_PERICENTER = 304.2295
MEAN_ANOMALY   = 54.5395

EPHEMERIS_TYPE = 0
CLASSIFICATION_TYPE = U
NORAD_CAT_ID   = 270229
ELEMENT_SET_NO = 999
REV_AT_EPOCH   = 30725
BSTAR          = .44940003E-3
MEAN_MOTION_DOT = .57E-5
MEAN_MOTION_DDOT = 0

CCSDS_OMM_VERS = 2.0
CREATION_DATE  = 
ORIGINATOR     = 

OBJECT_NAME    = UNKNOWN
OBJECT_ID      = 
CENTER_NAME    = EARTH
REF_FRAME      = TEME
TIME_SYSTEM    = UTC
MEAN_ELEMENT_THEORY = SGP/SGP4

EPOCH          = 2026-01-19T04:39:54.412128
MEAN_MOTION    = 12.20773821
ECCENTRICITY   = .03405844
INCLINATION    = 103.0334
RA_OF_ASC_NODE = 351.1057
ARG_OF_PERICENTER = 355.1713
MEAN_ANOMALY   = 4.6086

EPHEMERIS_TYPE = 0
CLASSIFICATION_TYPE = U
NORAD_CAT_ID   = 270230
ELEMENT_SET_NO = 999
REV_AT_EPOCH   = 26768
BSTAR          = .22308213E-1
MEAN_MOTION_DOT = .2757E-4
MEAN_MOTION_DDOT = 0

CCSDS_OMM_VERS = 2.0
CREATION_DATE  = 
ORIGINATOR     = 

OBJECT_NAME    = UNKNOWN
OBJECT_ID      = 
CENTER_NAME    = EARTH
REF_FRAME      = TEME
TIME_SYSTEM    = UTC
MEAN_ELEMENT_THEORY = SGP/SGP4

EPOCH          = 2026-01-04T08:22:23.595744
MEAN_MOTION    = 12.91841210
ECCENTRICITY   = .07057959
INCLINATION    = 72.9658
RA_OF_ASC_NODE = 38.2220
ARG_OF_PERICENTER = 344.2641
MEAN_ANOMALY   = 13.7454

EPHEMERIS_TYPE = 0
CLASSIFICATION_TYPE = U
NORAD_CAT_ID   = 270232
ELEMENT_SET_NO = 999
REV_AT_EPOCH   = 28091
BSTAR          = .53280718E-2
MEAN_MOTION_DOT = .4396E-4
MEAN_MOTION_DDOT = 0

CCSDS_OMM_VERS = 2.0
CREATION_DATE  = 
ORIGINATOR     = 

OBJECT_NAME    = UNKNOWN
OBJECT_ID      = 
CENTER_NAME    = EARTH
REF_FRAME      = TEME
TIME_SYSTEM    = UTC
MEAN_ELEMENT_THEORY = SGP/SGP4

EPOCH          = 2026-01-19T18:01:42.840192
MEAN_MOTION    = 14.38431502
ECCENTRICITY   = .00311919
INCLINATION    = 98.6245
RA_OF_ASC_NODE = 25.4442
ARG_OF_PERICENTER = 254.8973
MEAN_ANOMALY   = 104.8763

EPHEMERIS_TYPE = 0
CLASSIFICATION_TYPE = U
NORAD_CAT_ID   = 270233
ELEMENT_SET_NO = 999
REV_AT_EPOCH   = 31395
BSTAR          = .15154849E-3
MEAN_MOTION_DOT = .42E-5
MEAN_MOTION_DDOT = 0

CCSDS_OMM_VERS = 2.0
CREATION_DATE  = 
ORIGINATOR     = 

OBJECT_NAME    = UNKNOWN
OBJECT_ID      = 
CENTER_NAME    = EARTH
REF_FRAME      = TEME
TIME_SYSTEM    = UTC
MEAN_ELEMENT_THEORY = SGP/SGP4

EPOCH          = 2026-01-20T04:46:55.371072
MEAN_MOTION    = 12.95503791
ECCENTRICITY   = .00286759
INCLINATION    = 90.2362
RA_OF_ASC_NODE = 0.2548
ARG_OF_PERICENTER = 193.7107
MEAN_ANOMALY   = 166.3236

EPHEMERIS_TYPE = 0
CLASSIFICATION_TYPE = U
NORAD_CAT_ID   = 270236
ELEMENT_SET_NO = 999
REV_AT_EPOCH   = 28320
BSTAR          = -.55136622E-3
MEAN_MOTION_DOT = -.148E-5
MEAN_MOTION_DDOT = 0

CCSDS_OMM_VERS = 2.0
CREATION_DATE  = 
ORIGINATOR     = 

OBJECT_NAME    = UNKNOWN
OBJECT_ID      = 
CENTER_NAME    = EARTH
REF_FRAME      = TEME
TIME_SYSTEM    = UTC
MEAN_ELEMENT_THEORY = SGP/SGP4

EPOCH          = 2026-01-11T17:25:15.443616
MEAN_MOTION    = 12.96062472
ECCENTRICITY   = .00255483
INCLINATION    = 90.2439
RA_OF_ASC_NODE = 3.6872
ARG_OF_PERICENTER = 314.6409
MEAN_ANOMALY   = 45.2628

EPHEMERIS_TYPE = 0
CLASSIFICATION_TYPE = U
NORAD_CAT_ID   = 270237
ELEMENT_SET_NO = 999
REV_AT_EPOCH   = 28100
BSTAR          = .20365286E-2
MEAN_MOTION_DOT = .587E-5
MEAN_MOTION_DDOT = 0

CCSDS_OMM_VERS = 2.0
CREATION_DATE  = 
ORIGINATOR     = 

OBJECT_NAME    = UNKNOWN
OBJECT_ID      = 
CENTER_NAME    = EARTH
REF_FRAME      = TEME
TIME_SYSTEM    = UTC
MEAN_ELEMENT_THEORY = SGP/SGP4

EPOCH          = 2026-01-18T09:52:03.857664
MEAN_MOTION    = 12.80786718
ECCENTRICITY   = .01130839
INCLINATION    = 63.5218
RA_OF_ASC_NODE = 77.6721
ARG_OF_PERICENTER = 69.1512
MEAN_ANOMALY   = 292.1549

EPHEMERIS_TYPE = 0
CLASSIFICATION_TYPE = U
NORAD_CAT_ID   = 270238
ELEMENT_SET_NO = 999
REV_AT_EPOCH   = 27917
BSTAR          = .36686845E-3
MEAN_MOTION_DOT = .12E-6
MEAN_MOTION_DDOT = 0

CCSDS_OMM_VERS = 2.0
CREATION_DATE  = 
ORIGINATOR     = 

OBJECT_NAME    = UNKNOWN
OBJECT_ID      = 
CENTER_NAME    = EARTH
REF_FRAME      = TEME
TIME_SYSTEM    = UTC
MEAN_ELEMENT_THEORY = SGP/SGP4

EPOCH          = 2026-01-19T01:18:34.142976
MEAN_MOTION    = 12.27382333
ECCENTRICITY   = .01685245
INCLINATION    = 82.4321
RA_OF_ASC_NODE = 306.7374
ARG_OF_PERICENTER = 296.7016
MEAN_ANOMALY   = 61.6888

EPHEMERIS_TYPE = 0
CLASSIFICATION_TYPE = U
NORAD_CAT_ID   = 270239
ELEMENT_SET_NO = 999
REV_AT_EPOCH   = 26662
BSTAR          = .19747958E-2
MEAN_MOTION_DOT = .243E-5
MEAN_MOTION_DDOT = 0

CCSDS_OMM_VERS = 2.0
CREATION_DATE  = 
ORIGINATOR     = 

OBJECT_NAME    = UNKNOWN
OBJECT_ID      = 
CENTER_NAME    = EARTH
REF_FRAME      = TEME
TIME_SYSTEM    = UTC
MEAN_ELEMENT_THEORY = SGP/SGP4

EPOCH          = 2026-01-20T05:48:50.788800
MEAN_MOTION    = 12.63816801
ECCENTRICITY   = .00902031
INCLINATION    = 82.4313
RA_OF_ASC_NODE = 220.4388
ARG_OF_PERICENTER = 190.0035
MEAN_ANOMALY   = 169.9264

EPHEMERIS_TYPE = 0
CLASSIFICATION_TYPE = U
NORAD_CAT_ID   = 270240
ELEMENT_SET_NO = 999
REV_AT_EPOCH   = 27329
BSTAR          = .24655125E-1
MEAN_MOTION_DOT = .4583E-4
MEAN_MOTION_DDOT = 0

CCSDS_OMM_VERS = 2.0
CREATION_DATE  = 
ORIGINATOR     = 

OBJECT_NAME    = UNKNOWN
OBJECT_ID      = 
CENTER_NAME    = EARTH
REF_FRAME      = TEME
TIME_SYSTEM    = UTC
MEAN_ELEMENT_THEORY = SGP/SGP4

EPOCH          = 2026-01-10T16:52:24.231072
MEAN_MOTION    = 12.94301496
ECCENTRICITY   = .00294312
INCLINATION    = 90.2447
RA_OF_ASC_NODE = 2.7673
ARG_OF_PERICENTER = 306.8923
MEAN_ANOMALY   = 52.9500

EPHEMERIS_TYPE = 0
CLASSIFICATION_TYPE = U
NORAD_CAT_ID   = 270241
ELEMENT_SET_NO = 999
REV_AT_EPOCH   = 28033
BSTAR          = .67537671E-3
MEAN_MOTION_DOT = .195E-5
MEAN_MOTION_DDOT = 0

CCSDS_OMM_VERS = 2.0
CREATION_DATE  = 
ORIGINATOR     = 

OBJECT_NAME    = UNKNOWN
OBJECT_ID      = 
CENTER_NAME    = EARTH
REF_FRAME      = TEME
TIME_SYSTEM    = UTC
MEAN_ELEMENT_THEORY = SGP/SGP4

EPOCH          = 2026-01-16T04:58:56.186400
MEAN_MOTION    = 12.98543506
ECCENTRICITY   = .00456396
INCLINATION    = 90.2381
RA_OF_ASC_NODE = 4.1194
ARG_OF_PERICENTER = 48.5979
MEAN_ANOMALY   = 311.9051

EPHEMERIS_TYPE = 0
CLASSIFICATION_TYPE = U
NORAD_CAT_ID   = 270242
ELEMENT_SET_NO = 999
REV_AT_EPOCH   = 28172
BSTAR          = -.51766197E-3
MEAN_MOTION_DOT = -.145E-5
MEAN_MOTION_DDOT = 0

CCSDS_OMM_VERS = 2.0
CREATION_DATE  = 
ORIGINATOR     = 

OBJECT_NAME    = UNKNOWN
OBJECT_ID      = 
CENTER_NAME    = EARTH
REF_FRAME      = TEME
TIME_SYSTEM    = UTC
MEAN_ELEMENT_THEORY = SGP/SGP4

EPOCH          = 2026-01-15T00:05:20.905152
MEAN_MOTION    = 11.23973987
ECCENTRICITY   = .07973973
INCLINATION    = 102.1052
RA_OF_ASC_NODE = 93.9176
ARG_OF_PERICENTER = 146.4331
MEAN_ANOMALY   = 218.9904

EPHEMERIS_TYPE = 0
CLASSIFICATION_TYPE = U
NORAD_CAT_ID   = 270245
ELEMENT_SET_NO = 999
REV_AT_EPOCH   = 2195
BSTAR          = -.3963085E-1
MEAN_MOTION_DOT = -.2628E-4
MEAN_MOTION_DDOT = 0

